STARLINK-2608           
1 48365U 21038N   26068.17531553  .00011788  00000+0  40909-3 0  9991
2 48365  53.1618 350.2719 0001255  98.1968 261.9176 15.30231293267155
TOMORROW-S1             
1 60479U 24149M   26068.72470524  .00008620  00000+0  28856-3 0  9996
2 60479  97.3791 149.6044 0001819 207.2040 152.9106 15.31198362 86867
